INTELSAT 902 (IS-902)   
1 26900U 01039A   26175.16047324 -.00000280  00000+0  00000+0 0  9997
2 26900   6.1339  71.6983 0004242  21.2858 186.9989  1.00272396 90765
INTELSAT 904 (IS-904)   
1 27380U 02007A   26175.09281095 -.00000223  00000+0  00000+0 0  9990
2 27380   6.9376  69.1037 0006517   8.8219 196.2346  1.00273577 51836
DIRECTV 5 (TEMPO 1)     
1 27426U 02023A   26175.19499816 -.00000053  00000+0  00000+0 0  9993
2 27426   4.8961  75.2270 0003459  21.4649 135.7530  1.00272783 88191
INTELSAT 905 (IS-905)   
1 27438U 02027A   26174.78686591  .00000095  00000+0  00000+0 0  9997
2 27438   6.7705  69.7228 0004117  25.1578 323.1299  1.00273149 51424
GALAXY 3C (G-3C)        
1 27445U 02030A   26175.22297931 -.00000148  00000+0  00000+0 0  9995
2 27445   3.7509  77.8897 0001890  26.6024 153.3142  1.00272138 46566
INTELSAT 906 (IS-906)   
1 27513U 02041A   26175.18318002  .00000016  00000+0  00000+0 0  9994
2 27513   5.8196  72.8355 0004292   4.9907 324.6006  1.00271612 87090
GALAXY 13 (HORIZONS-1)  
1 27954U 03044A   26175.18128603  .00000139  00000+0  00000+0 0  9999
2 27954   1.4366  83.7739 0002107   4.2110  99.6267  1.00274159 46642
INTELSAT 10-02          
1 28358U 04022A   26175.02761910 -.00000004  00000+0  00000+0 0  9994
2 28358   0.0222 290.2426 0000317 232.3282 118.5529  1.00269986 80620
DIRECTV 8               
1 28659U 05019A   26175.19153802  .00000008  00000+0  00000+0 0  9991
2 28659   0.0135  57.1634 0003203  41.6591 123.4306  1.00272928 77140
GALAXY 28 (G-28)        
1 28702U 05022A   26175.16506660 -.00000195  00000+0  00000+0 0  9993
2 28702   3.3158  78.8463 0002317  11.3517 214.4658  1.00271272 52041
GALAXY 16 (G-16)        
1 29236U 06023A   26175.18239096 -.00000119  00000+0  00000+0 0  9992
2 29236   0.0415 146.8534 0002721 298.2959 153.8339  1.00267623 73044
DIRECTV 9S              
1 29494U 06043A   26175.22167929 -.00000107  00000+0  00000+0 0  9997
2 29494   2.4394  80.8266 0005305  16.7929 153.3595  1.00271678 51457
GALAXY 17 (G-17)        
1 31307U 07016B   26175.15358231 -.00000201  00000+0  00000+0 0  9999
2 31307   2.9900  79.8182 0004489  15.5695 147.2052  1.00271874 69878
INTELSAT 11 (IS-11)     
1 32253U 07044B   26175.04677252 -.00000046  00000+0  00000+0 0  9993
2 32253   3.5838  78.5929 0002814  84.3521 221.7820  0.99048310 68518
HORIZONS-2              
1 32388U 07063B   26175.18851894 -.00000248  00000+0  00000+0 0  9998
2 32388   2.6206  80.5467 0004094   3.7261 182.1384  1.00272035 67884
DIRECTV 11              
1 32729U 08013A   26174.93690975 -.00000119  00000+0  00000+0 0  9993
2 32729   0.0386 177.2592 0000161 263.8545  69.0887  1.00272226 45667
GALAXY 18 (G-18)        
1 32951U 08024A   26175.23881476  .00000032  00000+0  00000+0 0  9997
2 32951   0.0181 329.9123 0003052 125.8975 139.5670  1.00273802 45922
GALAXY 19 (G-19)        
1 33376U 08045A   26175.19963214 -.00000132  00000+0  00000+0 0  9990
2 33376   0.0465 260.4557 0002811 201.2526 145.5180  1.00272253 64970
FM-5                    
1 35493U 09034A   26175.22330536 -.00000193  00000+0  00000+0 0  9997
2 35493   0.0240 288.0310 0000794  49.4040 289.1712  1.00270528 46718
INTELSAT 14 (IS-14)     
1 36097U 09064A   26175.16151325 -.00000266  00000+0  00000+0 0  9992
2 36097   0.0179   0.6577 0002605  93.6919 191.1112  1.00270664 60670
INTELSAT 15 (IS-15)     
1 36106U 09067A   26175.18716671 -.00000178  00000+0  00000+0 0  9991
2 36106   0.0170  16.1249 0002429  79.7076 329.0415  1.00271884 41293
DIRECTV 12              
1 36131U 09075A   26175.19747616 -.00000096  00000+0  00000+0 0  9991
2 36131   0.0396 154.7925 0000400 358.0182  87.9069  1.00269396 46621
INTELSAT 16 (IS-16)     
1 36397U 10006A   26175.22663060 -.00000237  00000+0  00000+0 0  9992
2 36397   0.0103   7.1305 0002314 101.2075 169.4261  1.00271352 59729
XM-5                    
1 37185U 10053A   26175.21893684 -.00000015  00000+0  00000+0 0  9990
2 37185   0.0641 271.8131 0002670 283.3562  40.8247  1.00270607 57554
INTELSAT 17 (IS-17)     
1 37238U 10065B   26175.09142051  .00000005  00000+0  00000+0 0  9991
2 37238   0.0097 102.2144 0002714  11.8391 257.1124  1.00272972 53316
INTELSAT 28 (IS-28)     
1 37392U 11016A   26175.16411326 -.00000219  00000+0  00000+0 0  9999
2 37392   1.8248  82.5462 0003927  10.9266 206.1988  1.00270791 53358
INTELSAT 18 (IS-18)     
1 37834U 11056A   26175.20606830  .00000060  00000+0  00000+0 0  9998
2 37834   0.0225 285.1637 0001979 169.9080  71.4602  1.00272205 53880
INTELSAT 22 (IS-22)     
1 38098U 12011A   26175.11345954  .00000000  00000+0  00000+0 0  9994
2 38098   0.0306  45.5521 0001795  79.7511 259.9183  1.00270597  7255
INTELSAT 19 (IS-19)     
1 38356U 12030A   26175.19905834 -.00000049  00000+0  00000+0 0  9993
2 38356   0.0166 357.7130 0003299 102.9463  49.3620  1.00273171 50522
INTELSAT 20 (IS-20)     
1 38740U 12043A   26174.97013530  .00000000  00000+0  00000+0 0  9998
2 38740   0.0372  69.1750 0002034 121.3081 139.3822  1.00265021 50818
INTELSAT 21 (IS-21)     
1 38749U 12045A   26175.08767437 -.00000278  00000+0  00000+0 0  9992
2 38749   0.0180  61.3133 0001708  44.8267 139.6692  1.00271293 50596
