OBJECT_NAME,OBJECT_ID,EPOCH,MEAN_MOTION,ECCENTRICITY,INCLINATION,RA_OF_ASC_NODE,ARG_OF_PERICENTER,MEAN_ANOMALY,EPHEMERIS_TYPE,CLASSIFICATION_TYPE,NORAD_CAT_ID,ELEMENT_SET_NO,REV_AT_EPOCH,BSTAR,MEAN_MOTION_DOT,MEAN_MOTION_DDOT
INTELSAT 902 (IS-902),2001-039A,2026-06-24T03:51:04.887936,1.00272396,.00042421,6.1339,71.6983,21.2858,186.9989,0,U,26900,999,9076,0,-.28E-5,0
INTELSAT 904 (IS-904),2002-007A,2026-06-24T02:13:38.866080,1.00273577,.00065176,6.9376,69.1037,8.8219,196.2346,0,U,27380,999,5183,0,-.223E-5,0
DIRECTV 5 (TEMPO 1),2002-023A,2026-06-24T04:40:47.841024,1.00272783,.00034591,4.8961,75.2270,21.4649,135.7530,0,U,27426,999,8819,0,-.53E-6,0
INTELSAT 905 (IS-905),2002-027A,2026-06-23T18:53:05.214624,1.00273149,.00041178,6.7705,69.7228,25.1578,323.1299,0,U,27438,999,5142,0,.95E-6,0
GALAXY 3C (G-3C),2002-030A,2026-06-24T05:21:05.412384,1.00272138,.00018909,3.7509,77.8897,26.6024,153.3142,0,U,27445,999,4656,0,-.148E-5,0
INTELSAT 906 (IS-906),2002-041A,2026-06-24T04:23:46.753728,1.00271612,.00042929,5.8196,72.8355,4.9907,324.6006,0,U,27513,999,8709,0,.16E-6,0
GALAXY 13 (HORIZONS-1),2003-044A,2026-06-24T04:21:03.112992,1.00274159,.00021074,1.4366,83.7739,4.2110,99.6267,0,U,27954,999,4664,0,.139E-5,0
INTELSAT 10-02,2004-022A,2026-06-24T00:39:46.290240,1.00269986,.00003177,0.0222,290.2426,232.3282,118.5529,0,U,28358,999,8062,0,-.4E-7,0
DIRECTV 8,2005-019A,2026-06-24T04:35:48.884928,1.00272928,.00032038,0.0135,57.1634,41.6591,123.4306,0,U,28659,999,7714,0,.8E-7,0
GALAXY 28 (G-28),2005-022A,2026-06-24T03:57:41.754240,1.00271272,.00023174,3.3158,78.8463,11.3517,214.4658,0,U,28702,999,5204,0,-.195E-5,0
GALAXY 16 (G-16),2006-023A,2026-06-24T04:22:38.578944,1.00267623,.00027218,0.0415,146.8534,298.2959,153.8339,0,U,29236,999,7304,0,-.119E-5,0
DIRECTV 9S,2006-043A,2026-06-24T05:19:13.090656,1.00271678,.00053051,2.4394,80.8266,16.7929,153.3595,0,U,29494,999,5145,0,-.107E-5,0
GALAXY 17 (G-17),2007-016B,2026-06-24T03:41:09.511584,1.00271874,.00044893,2.9900,79.8182,15.5695,147.2052,0,U,31307,999,6987,0,-.201E-5,0
INTELSAT 11 (IS-11),2007-044B,2026-06-24T01:07:21.145728,0.99048310,.00028143,3.5838,78.5929,84.3521,221.7820,0,U,32253,999,6851,0,-.46E-6,0
HORIZONS-2,2007-063B,2026-06-24T04:31:28.036416,1.00272035,.00040941,2.6206,80.5467,3.7261,182.1384,0,U,32388,999,6788,0,-.248E-5,0
DIRECTV 11,2008-013A,2026-06-23T22:29:09.002400,1.00272226,.00001619,0.0386,177.2592,263.8545,69.0887,0,U,32729,999,4566,0,-.119E-5,0
GALAXY 18 (G-18),2008-024A,2026-06-24T05:43:53.595264,1.00273802,.00030521,0.0181,329.9123,125.8975,139.5670,0,U,32951,999,4592,0,.32E-6,0
GALAXY 19 (G-19),2008-045A,2026-06-24T04:47:28.216896,1.00272253,.0002811,0.0465,260.4557,201.2526,145.5180,0,U,33376,999,6497,0,-.132E-5,0
FM-5,2009-034A,2026-06-24T05:21:33.583104,1.00270528,.00007941,0.0240,288.0310,49.4040,289.1712,0,U,35493,999,4671,0,-.193E-5,0
INTELSAT 14 (IS-14),2009-064A,2026-06-24T03:52:34.744800,1.00270664,.00026059,0.0179,0.6577,93.6919,191.1112,0,U,36097,999,6067,0,-.266E-5,0
INTELSAT 15 (IS-15),2009-067A,2026-06-24T04:29:31.203744,1.00271884,.00024296,0.0170,16.1249,79.7076,329.0415,0,U,36106,999,4129,0,-.178E-5,0
DIRECTV 12,2009-075A,2026-06-24T04:44:21.940224,1.00269396,.00004009,0.0396,154.7925,358.0182,87.9069,0,U,36131,999,4662,0,-.96E-6,0
INTELSAT 16 (IS-16),2010-006A,2026-06-24T05:26:20.883840,1.00271352,.00023143,0.0103,7.1305,101.2075,169.4261,0,U,36397,999,5972,0,-.237E-5,0
XM-5,2010-053A,2026-06-24T05:15:16.142976,1.00270607,.00026703,0.0641,271.8131,283.3562,40.8247,0,U,37185,999,5755,0,-.15E-6,0
INTELSAT 17 (IS-17),2010-065B,2026-06-24T02:11:38.732064,1.00272972,.00027148,0.0097,102.2144,11.8391,257.1124,0,U,37238,999,5331,0,.5E-7,0
INTELSAT 28 (IS-28),2011-016A,2026-06-24T03:56:19.385664,1.00270791,.00039275,1.8248,82.5462,10.9266,206.1988,0,U,37392,999,5335,0,-.219E-5,0
INTELSAT 18 (IS-18),2011-056A,2026-06-24T04:56:44.301120,1.00272205,.00019796,0.0225,285.1637,169.9080,71.4602,0,U,37834,999,5388,0,.6E-6,0
INTELSAT 22 (IS-22),2012-011A,2026-06-24T02:43:22.904256,1.00270597,.00017951,0.0306,45.5521,79.7511,259.9183,0,U,38098,999,725,0,0,0
INTELSAT 19 (IS-19),2012-030A,2026-06-24T04:46:38.640576,1.00273171,.00032993,0.0166,357.7130,102.9463,49.3620,0,U,38356,999,5052,0,-.49E-6,0
INTELSAT 20 (IS-20),2012-043A,2026-06-23T23:16:59.689920,1.00265021,.00020349,0.0372,69.1750,121.3081,139.3822,0,U,38740,999,5081,0,0,0
INTELSAT 21 (IS-21),2012-045A,2026-06-24T02:06:15.065568,1.00271293,.00017084,0.0180,61.3133,44.8267,139.6692,0,U,38749,999,5059,0,-.278E-5,0
